STARLINK-1559           
1 46077U 20055BC  26068.23360559  .00042685  00000+0  14779-2 0  9995
2 46077  53.0254  76.0659 0004229  33.9710 326.1559 15.29461733309518
STARLINK-31895          
1 59849U 24097Q   26068.00613128 -.00001596  00000+0 -48490-4 0  9991
2 59849  42.9976 278.1021 0000971 290.4922  69.5825 15.27577588101811
